{"spkid": "20455184", "covariance": {"labels": ["e", "q", "tp", "node", "peri", "i", "A2"], "data": [["2.286676332181765E-14", "-1.893509007918447E-14", "-8.77987096812159E-13", "-3.903398116090466E-13", "8.74200320260989E-13", "7.933084752368733E-13", "4.978045844335616E-22"], ["-1.893509007918447E-14", "1.568129832024742E-14", "7.29376853597159E-13", "3.420849221648595E-13", "-7.403660370698407E-13", "-6.648444754831522E-13", "-4.038133999382887E-22"], ["-8.77987096812159E-13", "7.29376853597159E-13", "2.381416900390156E-10", "3.481862530886948E-10", "-2.748801247469764E-10", "-1.256424678516758E-10", "-2.478569750593823E-20"], ["-3.903398116090466E-13", "3.420849221648595E-13", "3.481862530886948E-10", "1.760632293597419E-9", "-1.560351021224736E-9", "-6.537781598680421E-10", "6.660722077186334E-20"], ["8.74200320260989E-13", "-7.403660370698407E-13", "-2.748801247469764E-10", "-1.560351021224736E-9", "1.422614427415013E-9", "6.054219013851815E-10", "-5.034204093774881E-20"], ["7.933084752368733E-13", "-6.648444754831522E-13", "-1.256424678516758E-10", "-6.537781598680421E-10", "6.054219013851815E-10", "3.025640095744372E-10", "-1.689912661864907E-20"], ["4.978045844335616E-22", "-4.038133999382887E-22", "-2.478569750593823E-20", "6.660722077186334E-20", "-5.034204093774881E-20", "-1.689912661864907E-20", "5.062939842036164E-29"]], "elements": [{"title": "eccentricity", "value": ".5667137393979498", "units": null, "name": "e", "sigma": 1.51217602552804e-07, "label": "e"}, {"sigma": 1.25224990797554e-07, "name": "q", "title": "perihelion distance", "value": ".361769247634404", "units": "au", "label": "q"}, {"label": "tp", "sigma": 1.5431840137813e-05, "name": "tp", "units": "TDB", "title": "time of perihelion passage", "value": "2457533.301328778180"}, {"value": "3.901140272264552", "title": "longitude of the ascending node", "units": "deg", "sigma": 4.19598891037312e-05, "name": "om", "label": "node"}, {"label": "peri", "units": "deg", "value": "310.1132209863973", "title": "argument of perihelion", "sigma": 3.77175612601745e-05, "name": "w"}, {"title": "inclination", "value": "13.77721609907019", "units": "deg", "sigma": 1.73943671794762e-05, "name": "i", "label": "i"}], "epoch": "2457451.5"}, "elements": [{"label": "e", "title": "eccentricity", "value": ".5666569199005519", "units": null, "sigma": "1.528E-7", "name": "e"}, {"units": "au", "value": ".834917698601806", "title": "semi-major axis", "sigma": "1.3448E-8", "name": "a", "label": "a"}, {"label": "q", "title": "perihelion distance", "value": ".3618058071416493", "units": "au", "sigma": "1.2462E-7", "name": "q"}, {"sigma": "1.7437E-5", "name": "i", "units": "deg", "title": "inclination; angle with respect to x-y ecliptic plane", "value": "13.77931544120574", "label": "i"}, {"label": "node", "title": "longitude of the ascending node", "value": "3.839890010889429", "units": "deg", "sigma": "4.199E-5", "name": "om"}, {"sigma": "3.7736E-5", "name": "w", "units": "deg", "title": "argument of perihelion", "value": "310.1471744458666", "label": "peri"}, {"units": "deg", "title": "mean anomaly", "value": "57.27698236982291", "sigma": "5.3331E-5", "name": "ma", "label": "M"}, {"label": "tp", "sigma": "4.0247E-5", "name": "tp", "units": "TDB", "title": "time of perihelion passage", "value": "2461156.165526402831"}, {"units": "d", "title": "sidereal orbital period", "value": "278.6531314085059", "sigma": "6.7323E-6", "name": "per", "label": "period"}, {"units": "deg/d", "value": "1.291928779627599", "title": "mean motion", "name": "n", "sigma": "3.1213E-8", "label": "n"}, {"value": "1.308029590061963", "title": "aphelion distance", "units": "au", "name": "ad", "sigma": "2.1068E-8", "label": "Q"}], "epoch": "2461200.5"}